[{"OBJECT_NAME":"STARLINK-6342","OBJECT_ID":"2023-078D","EPOCH":"2026-03-09T22:24:55.514304","MEAN_MOTION":14.98338533,"ECCENTRICITY":0.00023541,"INCLINATION":70.002,"RA_OF_ASC_NODE":3.8447,"ARG_OF_PERICENTER":253.487,"MEAN_ANOMALY":106.603,"EPHEMERIS_TYPE":0,"CLASSIFICATION_TYPE":"U","NORAD_CAT_ID":56770,"ELEMENT_SET_NO":999,"REV_AT_EPOCH":15222,"BSTAR":2.8956148e-5,"MEAN_MOTION_DOT":2.53e-6,"MEAN_MOTION_DDOT":0},{"OBJECT_NAME":"QPS-SAR-14 (YACHIHOKO-I)","OBJECT_ID":"2025-252A","EPOCH":"2026-03-09T23:58:05.760192","MEAN_MOTION":14.98763566,"ECCENTRICITY":0.00075988,"INCLINATION":42.0055,"RA_OF_ASC_NODE":316.7582,"ARG_OF_PERICENTER":330.3293,"MEAN_ANOMALY":29.71,"EPHEMERIS_TYPE":0,"CLASSIFICATION_TYPE":"U","NORAD_CAT_ID":66316,"ELEMENT_SET_NO":999,"REV_AT_EPOCH":1862,"BSTAR":0.00051193076,"MEAN_MOTION_DOT":6.093e-5,"MEAN_MOTION_DDOT":0}]
